NORAD_CAT_ID,OBJECT_NAME,OBJECT_TYPE,EPOCH,MEAN_MOTION,ECCENTRICITY,INCLINATION,RA_OF_ASC_NODE,ARG_OF_PERICENTER,MEAN_ANOMALY,BSTAR,MEAN_MOTION_DOT,MEAN_MOTION_DDOT,TLE_LINE0,TLE_LINE1,TLE_LINE2,SEMIMAJOR_AXIS,PERIOD,APOGEE,PERIGEE,DECAYED
53390.0,STARLINK-4517,PAYLOAD,2023-03-24 21:07:53,15.08897594,0.0001205,53.2134,296.0654,77.7688,282.3439,0.0015034,0.00023757,0.0,0 STARLINK-4517,1 53390U 22097C   23083.88047735  .00023757  00000-0  15034-2 0  9997,2 53390  53.2134 296.0654 0001205  77.7688 282.3439 15.08897594 35659,6917.704,95.434,540.403,538.736,0.0
53390.0,STARLINK-4517,PAYLOAD,2023-03-25 01:54:01,15.08915855,0.0001249,53.2136,295.1732,76.9331,283.1801,0.0014945,0.00023627,0.0,0 STARLINK-4517,1 53390U 22097C   23084.07918650  .00023627  00000-0  14945-2 0  9998,2 53390  53.2136 295.1732 0001249  76.9331 283.1801 15.08915855 34889,6917.649,95.433,540.378,538.65,0.0
53390.0,STARLINK-4517,PAYLOAD,2023-03-25 20:58:42,15.08783041,0.0001473,53.2134,291.6054,124.6555,235.4576,0.0009753,0.00015244,0.0,0 STARLINK-4517,1 53390U 22097C   23084.87410035  .00015244  00000-0  97530-3 0  9998,2 53390  53.2134 291.6054 0001473 124.6555 235.4576 15.08783041 35007,6918.054,95.441,540.939,538.9,0.0
53390.0,STARLINK-4517,PAYLOAD,2023-03-26 20:49:32,15.08799287,0.0001339,53.2142,287.1449,140.8751,219.2338,0.0012349,0.00019398,0.0,0 STARLINK-4517,1 53390U 22097C   23085.86773814  .00019398  00000-0  12349-2 0  9993,2 53390  53.2142 287.1449 0001339 140.8751 219.2338 15.08799287 35154,6918.005,95.44,540.796,538.944,0.0
53390.0,STARLINK-4517,PAYLOAD,2023-03-26 22:24:55,15.08805449,0.000172,53.2141,286.8475,156.4657,203.6414,0.0014587,0.00022982,0.0,0 STARLINK-4517,1 53390U 22097C   23085.93397829  .00022982  00000-0  14587-2 0  9998,2 53390  53.2141 286.8475 0001720 156.4657 203.6414 15.08805449 35969,6917.986,95.44,541.041,538.661,0.0
53390.0,STARLINK-4517,PAYLOAD,2023-03-27 12:43:23,15.0884986,8.88e-05,53.2142,284.1703,113.1862,246.9223,0.0015964,0.00025217,0.0,0 STARLINK-4517,1 53390U 22097C   23086.53013451  .00025217  00000-0  15964-2 0  9995,2 53390  53.2142 284.1703 0000888 113.1862 246.9223 15.08849860 35252,6917.85,95.437,540.33,539.101,0.0
53390.0,STARLINK-4517,PAYLOAD,2023-03-27 22:15:41,15.0889222,8.92e-05,53.2137,282.3862,82.1729,277.9364,0.0015286,0.00024158,0.0,0 STARLINK-4517,1 53390U 22097C   23086.92756367  .00024158  00000-0  15286-2 0  9998,2 53390  53.2137 282.3862 0000892  82.1729 277.9364 15.08892220 35319,6917.721,95.434,540.203,538.969,0.0
53390.0,STARLINK-4517,PAYLOAD,2023-03-28 06:12:36,15.08876645,3.16e-05,53.2139,280.899,215.0779,145.0193,0.00020333,2.953e-05,0.0,0 STARLINK-4517,1 53390U 22097C   23087.25875331  .00002953  00000-0  20333-3 0  9997,2 53390  53.2139 280.8990 0000316 215.0779 145.0193 15.08876645 35362,6917.768,95.435,539.852,539.415,0.0
53390.0,STARLINK-4517,PAYLOAD,2023-03-28 12:34:08,15.08877364,7.6e-05,53.2128,279.7093,98.3472,261.7606,0.00088272,0.00013803,0.0,0 STARLINK-4517,1 53390U 22097C   23087.52371228  .00013803  00000-0  88272-3 0  9995,2 53390  53.2128 279.7093 0000760  98.3472 261.7606 15.08877364 36204,6917.766,95.435,540.157,539.105,0.0
53390.0,STARLINK-4517,PAYLOAD,2023-03-28 18:55:40,15.08881524,8e-05,53.213,278.5203,93.6434,266.465,0.0015364,0.00024276,0.0,0 STARLINK-4517,1 53390U 22097C   23087.78866678  .00024276  00000-0  15364-2 0  9998,2 53390  53.2130 278.5203 0000800  93.6434 266.4650 15.08881524 36246,6917.753,95.435,540.172,539.065,0.0
53390.0,STARLINK-4517,PAYLOAD,2023-03-29 18:46:27,15.08852464,9.98e-05,53.2136,274.0604,46.5456,313.5619,0.0010277,0.00016111,0.0,0 STARLINK-4517,1 53390U 22097C   23088.78226698  .00016111  00000-0  10277-2 0  9998,2 53390  53.2136 274.0604 0000998  46.5456 313.5619 15.08852464 35594,6917.842,95.437,540.398,539.017,0.0
53390.0,STARLINK-4517,PAYLOAD,2023-03-30 17:01:51,15.08854769,0.0001226,53.2138,269.897,60.5001,299.6113,0.00082565,0.00012882,0.0,0 STARLINK-4517,1 53390U 22097C   23089.70962580  .00012882  00000-0  82565-3 0  9999,2 53390  53.2138 269.8970 0001226  60.5001 299.6113 15.08854769 35730,6917.835,95.437,540.548,538.852,0.0
53390.0,STARLINK-4517,PAYLOAD,2023-03-31 12:06:29,15.08848911,0.0001388,53.2131,266.3262,57.4866,302.626,0.00042012,6.406e-05,0.0,0 STARLINK-4517,1 53390U 22097C   23090.50450459  .00006406  00000-0  42012-3 0  9994,2 53390  53.2131 266.3262 0001388  57.4866 302.6260 15.08848911 35855,6917.853,95.437,540.678,538.758,0.0
53390.0,STARLINK-4517,PAYLOAD,2023-04-01 04:00:20,15.0882545,8.46e-05,53.2135,263.3539,85.7315,274.3774,-0.00036322,-6.061e-05,0.0,0 STARLINK-4517,1 53390U 22097C   23091.16690821 -.00006061  00000-0 -36322-3 0  9992,2 53390  53.2135 263.3539 0000846  85.7315 274.3774 15.08825450 35953,6917.925,95.438,540.375,539.205,0.0
53390.0,STARLINK-4517,PAYLOAD,2023-04-01 13:32:39,15.08823399,5.71e-05,53.2155,261.5684,85.4251,274.6806,-0.00026169,-4.448e-05,0.0,0 STARLINK-4517,1 53390U 22097C   23091.56435165 -.00004448  00000-0 -26169-3 0  9999,2 53390  53.2155 261.5684 0000571  85.4251 274.6806 15.08823399 36812,6917.931,95.439,540.191,539.401,0.0
53390.0,STARLINK-4517,PAYLOAD,2023-04-01 19:54:12,15.08841087,0.0001082,53.2135,260.3789,74.1547,285.9564,7.9195e-05,9.73e-06,0.0,0 STARLINK-4517,1 53390U 22097C   23091.82930631  .00000973  00000-0  79195-4 0  9991,2 53390  53.2135 260.3789 0001082  74.1547 285.9564 15.08841087 36050,6917.877,95.437,540.491,538.994,0.0
53390.0,STARLINK-4517,PAYLOAD,2023-04-02 11:48:03,15.08844139,9.95e-05,53.2135,257.4053,85.4025,274.7081,0.00031689,4.76e-05,0.0,0 STARLINK-4517,1 53390U 22097C   23092.49170798  .00004760  00000-0  31689-3 0  9998,2 53390  53.2135 257.4053 0000995  85.4025 274.7081 15.08844139 36959,6917.868,95.437,540.421,539.044,0.0
53390.0,STARLINK-4517,PAYLOAD,2023-04-02 18:09:35,15.08862343,0.0001001,53.2133,256.2165,89.3944,270.7163,0.001038,0.0001628,0.0,0 STARLINK-4517,1 53390U 22097C   23092.75666507  .00016280  00000-0  10380-2 0  9999,2 53390  53.2133 256.2165 0001001  89.3944 270.7163 15.08862343 36190,6917.812,95.436,540.37,538.985,0.0
53390.0,STARLINK-4517,PAYLOAD,2023-04-03 03:41:54,15.08854199,7.31e-05,53.2123,254.4325,99.1889,260.9186,0.00057605,8.895e-05,0.0,0 STARLINK-4517,1 53390U 22097C   23093.15410414  .00008895  00000-0  57605-3 0  9993,2 53390  53.2123 254.4325 0000731  99.1889 260.9186 15.08854199 36256,6917.837,95.437,540.208,539.196,0.0
53390.0,STARLINK-4517,PAYLOAD,2023-04-04 03:32:42,15.08833905,0.000185,53.212,249.9702,87.7745,272.3459,0.00032052,4.816e-05,0.0,0 STARLINK-4517,1 53390U 22097C   23094.14771498  .00004816  00000-0  32052-3 0  9993,2 53390  53.2120 249.9702 0001850  87.7745 272.3459 15.08833905 36407,6917.899,95.438,541.044,538.484,0.0
53390.0,STARLINK-4517,PAYLOAD,2023-04-04 19:26:33,15.08852604,0.0001312,53.2126,246.9961,88.2541,271.8601,0.00061009,9.438e-05,0.0,0 STARLINK-4517,1 53390U 22097C   23094.81010824  .00009438  00000-0  61009-3 0  9995,2 53390  53.2126 246.9961 0001312  88.2541 271.8601 15.08852604 36501,6917.842,95.437,540.614,538.799,0.0
53390.0,STARLINK-4517,PAYLOAD,2023-04-05 14:31:11,15.08828599,0.0001193,53.2146,243.4278,31.6452,328.4612,1.6664e-06,-2.61e-06,0.0,0 STARLINK-4517,1 53390U 22097C   23095.60499564 -.00000261  00000-0  16664-5 0  9990,2 53390  53.2146 243.4278 0001193  31.6452 328.4612 15.08828599 37425,6917.915,95.438,540.606,538.955,0.0
53390.0,STARLINK-4517,PAYLOAD,2023-04-05 16:06:34,15.08846143,7.5e-05,53.2143,243.1315,143.4319,216.6725,0.00048615,7.459e-05,0.0,0 STARLINK-4517,1 53390U 22097C   23095.67122893  .00007459  00000-0  48615-3 0  9999,2 53390  53.2143 243.1315 0000750 143.4319 216.6725 15.08846143 36633,6917.862,95.437,540.245,539.208,0.0
53390.0,STARLINK-4517,PAYLOAD,2023-04-06 03:14:16,15.08843196,0.0001008,53.2135,241.0507,68.035,292.0749,0.00051855,7.975e-05,0.0,0 STARLINK-4517,1 53390U 22097C   23096.13491428  .00007975  00000-0  51855-3 0  9997,2 53390  53.2135 241.0507 0001008  68.0350 292.0749 15.08843196 36705,6917.871,95.437,540.433,539.038,0.0
53390.0,STARLINK-4517,PAYLOAD,2023-04-06 12:46:35,15.08842629,0.0001459,53.2134,239.2647,85.1827,274.9332,0.00052883,8.139e-05,0.0,0 STARLINK-4517,1 53390U 22097C   23096.53235658  .00008139  00000-0  52883-3 0  9997,2 53390  53.2134 239.2647 0001459  85.1827 274.9332 15.08842629 37569,6917.872,95.437,540.747,538.728,0.0
53390.0,STARLINK-4517,PAYLOAD,2023-04-06 19:08:07,15.08850913,0.0001319,53.2146,238.0763,81.4628,278.6513,0.00069869,0.00010852,0.0,0 STARLINK-4517,1 53390U 22097C   23096.79731416  .00010852  00000-0  69869-3 0  9995,2 53390  53.2146 238.0763 0001319  81.4628 278.6513 15.08850913 37603,6917.847,95.437,540.624,538.8,0.0
53390.0,STARLINK-4517,PAYLOAD,2023-04-07 03:05:03,15.08843153,0.0001506,53.2123,236.5923,60.9993,299.115,0.00076641,0.00011932,0.0,0 STARLINK-4517,1 53390U 22097C   23097.12851543  .00011932  00000-0  76641-3 0  9993,2 53390  53.2123 236.5923 0001506  60.9993 299.1150 15.08843153 36853,6917.871,95.437,540.778,538.694,0.0
53390.0,STARLINK-4517,PAYLOAD,2023-04-07 09:26:36,15.08846603,0.000137,53.2143,235.4005,75.4038,284.7106,0.00029474,4.407e-05,0.0,0 STARLINK-4517,1 53390U 22097C   23097.39347407  .00004407  00000-0  29474-3 0  9992,2 53390  53.2143 235.4005 0001370  75.4038 284.7106 15.08846603 37691,6917.86,95.437,540.673,538.777,0.0
53390.0,STARLINK-4517,PAYLOAD,2023-04-07 18:58:54,15.0884993,0.0001803,53.2128,233.6187,71.9949,288.124,0.00045907,7.028e-05,0.0,0 STARLINK-4517,1 53390U 22097C   23097.79091327  .00007028  00000-0  45907-3 0  9994,2 53390  53.2128 233.6187 0001803  71.9949 288.1240 15.08849930 36959,6917.85,95.437,540.962,538.468,0.0
53390.0,STARLINK-4517,PAYLOAD,2023-04-08 12:28:09,15.08838189,0.0001365,53.2145,230.3449,96.668,263.4467,0.00010122,1.323e-05,0.0,0 STARLINK-4517,1 53390U 22097C   23098.51955513  .00001323  00000-0  10122-3 0  9994,2 53390  53.2145 230.3449 0001365  96.6680 263.4467 15.08838189 37066,6917.886,95.438,540.695,538.807,0.0
